[{"OBJECT_NAME":"STARLINK-4629","OBJECT_ID":"2022-125E","EPOCH":"2026-03-09T16:36:40.825152","MEAN_MOTION":15.08838312,"ECCENTRICITY":0.00014027,"INCLINATION":53.2155,"RA_OF_ASC_NODE":224.0272,"ARG_OF_PERICENTER":103.9356,"MEAN_ANOMALY":256.1792,"EPHEMERIS_TYPE":0,"CLASSIFICATION_TYPE":"U","NORAD_CAT_ID":53968,"ELEMENT_SET_NO":999,"REV_AT_EPOCH":18932,"BSTAR":0.00010577531,"MEAN_MOTION_DOT":1.396e-5,"MEAN_MOTION_DDOT":0},{"OBJECT_NAME":"CZ-4C DEB","OBJECT_ID":"2015-069E","EPOCH":"2026-03-08T09:26:17.543040","MEAN_MOTION":15.0129982,"ECCENTRICITY":0.00755181,"INCLINATION":98.2766,"RA_OF_ASC_NODE":51.2744,"ARG_OF_PERICENTER":283.3594,"MEAN_ANOMALY":75.9217,"EPHEMERIS_TYPE":0,"CLASSIFICATION_TYPE":"U","NORAD_CAT_ID":42672,"ELEMENT_SET_NO":999,"REV_AT_EPOCH":54397,"BSTAR":0.0018440127,"MEAN_MOTION_DOT":0.00025217,"MEAN_MOTION_DDOT":0}]
